# From MPC 81862
275P/Hermann,e,21.2752,348.7574,174.0298,5.774437,0.0710296,0.71248500,234.6575,01/02.0/2022,2000,g 17.0,4.0
# From MPEC 2020-K19
276P/Vorobjov,e,14.8102,211.3759,199.6211,5.320344,0.0803146,0.26744485,273.4734,01/02.0/2022,2000,g 11.5,4.0
# From MPEC 2021-F20
277P/LINEAR,e,16.7769,276.3361,152.3172,3.853496,0.1302932,0.50585599,47.9230,01/02.0/2022,2000,g 15.1,4.0
# From MPEC 2021-S45
278P/McNaught,e,6.6937,15.3817,237.9220,3.691259,0.1389768,0.43579472,66.3270,01/02.0/2022,2000,g 14.0,4.0
# From MPC100285
279P/La Sagra,e,5.0525,346.2335,5.8304,3.573243,0.1459185,0.39864245,291.0434,01/02.0/2022,2000,g 14.0,4.0
# From MPC 89013
280P/Larsen,e,11.7745,131.3934,104.7685,4.529894,0.1022285,0.41742413,300.7355,01/02.0/2022,2000,g 12.5,4.0
# From MPEC 2021-W31
281P/MOSS,e,4.7191,87.1797,26.6819,4.873791,0.0916017,0.17219842,323.7409,01/02.0/2022,2000,g 11.0,4.0
# From MPC133426
282P/,e,5.8116,9.2968,217.6292,4.240330,0.1128768,0.18850846,7.8308,01/02.0/2022,2000,g 13.5,2.0
# From MPEC 2021-BE3
283P/Spacewatch,e,14.4552,161.1291,22.2423,4.137986,0.1170902,0.48473334,13.5828,01/02.0/2022,2000,g 16.0,2.0
# From MPEC 2021-Y10
284P/McNaught,e,11.8613,144.2629,202.4274,3.677424,0.1397618,0.37573563,15.5633,01/02.0/2022,2000,g 13.0,4.0
# From MPC 85339
285P/LINEAR,e,25.0382,185.5066,178.4348,4.507445,0.1029932,0.61852140,321.3362,01/02.0/2022,2000,g 15.0,4.0
# From MPEC 2021-O56
286P/Christensen,e,17.0457,283.9568,24.8577,4.108862,0.1183373,0.42538472,344.5390,01/02.0/2022,2000,g 14.0,4.0
# From MPC 96868
287P/Christensen,e,16.3199,139.0435,189.0166,4.163943,0.1159971,0.27102005,296.3759,01/02.0/2022,2000,g 13.5,4.0
# From MPC133426
288P/,e,3.2378,83.1485,280.3031,3.051416,0.1849064,0.20137520,349.0680,01/02.0/2022,2000,g 16.0,2.0
# From MPEC 2021-S45
289P/Blanpain,e,5.8960,68.8825,9.8509,3.046320,0.1853705,0.68560299,137.7325,01/02.0/2022,2000,g 19.0,4.0
# From MPC 95214
290P/Jager,e,20.0966,302.6869,181.9069,6.212833,0.0636458,0.62814173,184.2316,01/02.0/2022,2000,g 10.5,4.0
# From MPEC 2021-N06
291P/NEAT,e,6.2999,237.9248,173.6657,4.533127,0.1021192,0.43552370,310.1344,01/02.0/2022,2000,g 13.0,4.0
# From MPC115887
292P/Li,e,24.2710,90.9598,319.4724,6.105269,0.0653351,0.58883063,188.9627,01/02.0/2022,2000,g 12.5,4.0
# From MPEC 2021-S45
293P/Spacewatch,e,9.0570,78.4018,41.0177,3.642810,0.1417586,0.41823532,53.7037,01/02.0/2022,2000,g 14.5,4.0
# From MPEC 2020-SI8
294P/LINEAR,e,18.1454,312.4170,235.3275,3.195136,0.1725719,0.59960198,131.4739,01/02.0/2022,2000,g 15.5,4.0
# From MPC 93589
295P/LINEAR,e,21.0741,7.4356,72.8795,5.306127,0.0806376,0.61645621,225.7907,01/02.0/2022,2000,g 12.0,4.0
# From MPEC 2021-N06
296P/Garradd,e,25.2306,263.5922,350.0627,3.495031,0.1508438,0.47871809,71.0868,01/02.0/2022,2000,g 14.0,4.0
# From MPC102956
297P/Beshore,e,10.3229,97.6444,132.6651,3.446515,0.1540401,0.31979228,52.9310,01/02.0/2022,2000,g 15.0,4.0
# From MPC114609
298P/Christensen,e,7.8709,52.8226,100.6582,3.590895,0.1448438,0.38646717,69.9278,01/02.0/2022,2000,g 15.0,4.0
# From MPC101100
299P/Catalina-PANSTARRS,e,10.4714,271.6213,323.8468,4.386365,0.1072870,0.28117633,268.8010,01/02.0/2022,2000,g 11.5,4.0
# From MPC114609
300P/Catalina,e,5.6743,95.6440,222.9163,2.699714,0.2221915,0.69177314,256.8905,01/02.0/2022,2000,g 16.0,4.0
# From MPC 89014
301P/LINEAR-NEAT,e,10.3398,351.1750,193.6552,5.739411,0.0716808,0.58516567,192.5575,01/02.0/2022,2000,g 13.0,4.0
# From MPEC 2020-HN5
302P/Lemmon-PANSTARRS,e,6.0338,121.7497,208.3287,4.275097,0.1115026,0.23027631,230.5813,01/02.0/2022,2000,g 12.5,4.0
# From MPC 92278
303P/NEAT,e,7.0217,347.9721,356.9191,5.046053,0.0869514,0.51084214,228.8104,01/02.0/2022,2000,g 13.5,4.0
# From MPEC 2020-N08
304P/Ory,e,2.6069,58.9208,335.2409,3.150681,0.1762371,0.60068150,89.4406,01/02.0/2022,2000,g 16.5,4.0
# From MPC101100
305P/Skiff,e,11.6572,240.1065,147.3175,4.642687,0.0985258,0.69362000,256.5211,01/02.0/2022,2000,g 18.0,4.0
# From MPC 92278
306P/LINEAR,e,8.3114,341.3730,0.8598,3.123588,0.1785350,0.59331233,126.7552,01/02.0/2022,2000,g 19.0,4.0
# From MPC 92278
307P/LINEAR,e,4.4353,158.1643,222.1299,5.791479,0.0707164,0.67511917,181.5489,01/02.0/2022,2000,g 15.0,4.0
# From MPC109148
308P/Lagerkvist-Carsenty,e,4.8522,63.0643,333.6010,6.602052,0.0581013,0.36393715,141.2525,01/02.0/2022,2000,g 13.0,2.0
# From MPC 94284
309P/LINEAR,e,17.0237,10.1460,49.9422,4.372188,0.1078092,0.61788579,271.8801,01/02.0/2022,2000,g 15.0,4.0
# From MPC 98566
310P/Hill,e,13.1278,8.9234,31.8010,4.179283,0.1153590,0.42204239,283.8122,01/02.0/2022,2000,g 13.5,4.0
# From MPEC 2021-BE3
311P/PANSTARRS,e,4.9695,279.2174,144.5429,2.188576,0.3044119,0.11564928,137.4780,01/02.0/2022,2000,g 17.0,4.0
# From MPEC 2021-BE3
312P/NEAT,e,19.7682,144.6695,207.5894,3.467848,0.1526209,0.42788406,70.7982,01/02.0/2022,2000,g 16.0,4.0
# From MPEC 2021-S45
313P/Gibbs,e,10.9813,105.9717,254.7559,3.163336,0.1751806,0.23503664,109.7135,01/02.0/2022,2000,g 15.0,4.0
# From MPC105243
314P/Montani,e,3.9819,267.6087,214.0495,7.264763,0.0503352,0.41615050,96.2696,01/02.0/2022,2000,g  9.5,4.0
# From MPEC 2021-N06
315P/LONEOS,e,17.7465,68.8535,65.7207,4.939730,0.0897737,0.52107534,167.1797,01/02.0/2022,2000,g 11.0,4.0
# From MPC 92279
316P/LONEOS-Christensen,e,9.8315,246.5174,192.8385,4.369231,0.1079187,0.15636879,246.7325,01/02.0/2022,2000,g 13.5,4.0
# From MPEC 2020-C98
317P/WISE,e,11.9504,275.4976,334.8662,2.963461,0.1931992,0.57047950,89.4303,01/02.0/2022,2000,g 17.5,4.0
# From MPC102103
318P/McNaught-Hartley,e,17.8822,35.5500,313.2352,7.500415,0.0479818,0.67529935,108.4640,01/02.0/2022,2000,g  8.5,6.0
# From MPC 97499
319P/Catalina-McNaught,e,15.0950,111.3704,203.6787,3.566192,0.1463515,0.66659744,347.0575,01/02.0/2022,2000,g 15.0,4.0
# From MPC 96281
320P/McNaught,e,4.9084,295.9339,0.7794,3.093615,0.1811359,0.68560911,63.3774,01/02.0/2022,2000,g 20.5,4.0
# From MPC105243
321P/SOHO,e,20.0904,165.0179,172.7471,2.423469,0.2612449,0.98111335,0.0000,10/26.4606/2023,2000,g 20.0,4.0
# From MPC102103
322P/SOHO,e,11.4678,351.5272,56.8734,2.507897,0.2481644,0.97988321,0.0000,08/21.0972/2023,2000,g 19.0,4.0
# From MPEC 2016-Y36
323P/SOHO,e,5.3362,324.3810,353.0533,2.582915,0.2374318,0.98482998,0.0000,01/17.7824/2021,2000,g 20.0,4.0
# From MPEC 2021-W31
324P/LaSagra,e,21.4030,270.5898,57.5746,3.095137,0.1810024,0.15402368,43.7280,01/02.0/2022,2000,g 13.0,4.0
# From MPC114609
325P/Yang-Gao,e,16.6938,257.5606,343.6990,3.523071,0.1490466,0.59341887,347.1562,01/02.0/2022,2000,g 14.0,4.0
# From MPC103849
326P/Hill,e,2.4710,99.8094,278.6210,4.062802,0.1203554,0.31797731,272.4291,01/02.0/2022,2000,g 13.5,4.0
# From MPC 97499
327P/Van Ness,e,36.2512,173.9852,185.0504,3.561830,0.1466203,0.56313925,324.3056,01/02.0/2022,2000,g 16.0,4.0
# From MPC109148
328P/LONEOS-Tucker,e,17.6732,341.6354,30.5114,4.193334,0.1147797,0.55243882,252.3414,01/02.0/2022,2000,g 14.5,4.0
# From MPC101101
329P/LINEAR-Catalina,e,21.6828,87.6668,343.5289,5.190275,0.0833525,0.67752236,185.4545,01/02.0/2022,2000,g 13.5,4.0
# From MPC105243
330P/Catalina,e,15.6980,293.0910,188.9158,6.626328,0.0577823,0.54837948,112.9825,01/02.0/2022,2000,g 12.0,4.0
# From MPEC 2021-BE3
331P/Gibbs,e,9.7379,216.7637,184.1850,3.004999,0.1892072,0.04110603,86.5162,01/02.0/2022,2000,g 12.0,4.0
# From MPEC 2016-K18
332P/Ikeya-Murakami,e,9.3800,3.7857,152.3317,3.088932,0.1815480,0.48943800,24.7992,01/02.0/2022,2000,g 18.0,4.0
# From MPEC 2016-EI8
332P-B/Ikeya-Murakami,e,9.3805,3.8028,152.3711,3.082329,0.1821317,0.48970701,359.9699,03/17.0/2016,2000,g 19.0,4.0
# From MPEC 2016-K18
332P-C/Ikeya-Murakami,e,9.3791,3.7861,152.3230,3.088898,0.1815510,0.48944345,24.8138,01/02.0/2022,2000,g 16.5,4.0
# From MPEC 2016-ED0
332P-D/Ikeya-Murakami,e,9.3761,3.7923,152.4393,3.081138,0.1822373,0.48977814,359.9486,03/17.0/2016,2000,g 19.0,4.0
# From MPEC 2016-ED0
332P-E/Ikeya-Murakami,e,9.3774,3.8228,152.2825,3.079877,0.1823493,0.48922008,359.9889,03/17.0/2016,2000,g 21.0,4.0
# From MPEC 2016-ED0
332P-F/Ikeya-Murakami,e,9.5293,3.4757,152.8203,3.163214,0.1751908,0.49918860,359.8501,03/17.0/2016,2000,g 21.0,4.0
# From MPEC 2016-ED0
332P-G/Ikeya-Murakami,e,9.2523,3.6955,154.4000,3.050519,0.1849880,0.49200362,359.9006,03/19.0/2016,2000,g 19.0,4.0
# From MPC100285
332P-H/Ikeya-Murakami,e,9.3796,3.7859,152.3236,3.089083,0.1815347,0.48947868,24.7465,01/02.0/2022,2000,g 19.0,4.0
# From MPEC 2016-ED0
332P-I/Ikeya-Murakami,e,9.3791,3.8048,152.3297,3.081767,0.1821815,0.48955490,359.9360,03/17.0/2016,2000,g 20.5,2.0
# From MPEC 2016-EI8
332P-J/Ikeya-Murakami,e,9.4296,3.6729,152.7712,3.115165,0.1792596,0.49429435,359.8613,03/17.0/2016,2000,g 20.5,2.0
# From MPEC 2020-L06
333P/LINEAR,e,131.9876,115.6332,25.9927,4.219957,0.1136952,0.73668817,239.2382,01/02.0/2022,2000,g 15.0,4.0
# From MPC115888
334P/NEAT,e,20.4160,90.6432,90.1086,6.838469,0.0551145,0.35095392,92.1216,01/02.0/2022,2000,g 10.5,4.0
# From MPEC 2021-U31
335P/Gibbs,e,7.2934,330.8475,162.3041,3.577291,0.1456709,0.54603733,327.6592,01/02.0/2022,2000,g 17.0,4.0
# From MPC105244
336P/McNaught,e,17.8318,298.2436,308.7533,5.034007,0.0872636,0.44459120,156.6839,01/02.0/2022,2000,g 13.5,4.0
# From MPEC 2021-N06
337P/WISE,e,15.3709,106.0634,161.0207,3.286270,0.1654433,0.49666102,330.1968,01/02.0/2022,2000,g 17.0,4.0
# From MPC104796
338P/McNaught,e,25.3844,9.7956,4.4283,3.895879,0.1281728,0.41179982,239.0243,01/02.0/2022,2000,g 12.0,4.0
# From MPC101101
339P/Gibbs,e,5.7333,172.7252,27.4958,3.697799,0.1386082,0.63545695,275.9935,01/02.0/2022,2000,g 17.0,4.0
# From MPEC 2021-UA9
340P/Boattini,e,2.0787,291.7031,35.9023,4.250808,0.1124597,0.28085985,210.0004,01/02.0/2022,2000,g 14.3,4.0
# From MPEC 2021-BE3
341P/Gibbs,e,3.7965,29.9713,312.2019,4.292344,0.1108313,0.41567019,226.3503,01/02.0/2022,2000,g 12.5,4.0
# From MPC101101
342P/SOHO,e,11.6662,27.7045,73.2674,3.042461,0.1857234,0.98276634,0.0000,10/19.3008/2021,2000,g  9.0,4.0
# From MPC109148
343P/NEAT-LONEOS,e,5.5865,257.1694,137.4059,5.459162,0.0772707,0.58465125,138.9871,01/02.0/2022,2000,g 14.0,4.0
# From MPC109148
